[{"OBJECT_NAME":"ONEWEB-0664","OBJECT_ID":"2023-029AE","EPOCH":"2026-03-09T15:31:42.897792","MEAN_MOTION":13.20771965,"ECCENTRICITY":0.0001137,"INCLINATION":87.9162,"RA_OF_ASC_NODE":294.3685,"ARG_OF_PERICENTER":95.6788,"MEAN_ANOMALY":264.4474,"EPHEMERIS_TYPE":0,"CLASSIFICATION_TYPE":"U","NORAD_CAT_ID":55824,"ELEMENT_SET_NO":999,"REV_AT_EPOCH":14800,"BSTAR":-0.00082688,"MEAN_MOTION_DOT":-3.23e-6,"MEAN_MOTION_DDOT":0},{"OBJECT_NAME":"DELTA 1 DEB","OBJECT_ID":"1975-052CJ","EPOCH":"2026-03-09T09:42:21.543264","MEAN_MOTION":12.97301625,"ECCENTRICITY":0.02514375,"INCLINATION":99.6694,"RA_OF_ASC_NODE":31.4963,"ARG_OF_PERICENTER":158.845,"MEAN_ANOMALY":327.2482,"EPHEMERIS_TYPE":0,"CLASSIFICATION_TYPE":"U","NORAD_CAT_ID":21364,"ELEMENT_SET_NO":999,"REV_AT_EPOCH":64444,"BSTAR":0.00064113021,"MEAN_MOTION_DOT":1.78e-6,"MEAN_MOTION_DDOT":0}]
